STARLINK-33718          
1 63476U 25070S   26068.58357932  .00028847  00000+0  10525-2 0  9997
2 63476  43.0027 260.0952 0001515 259.2306 100.8375 15.27617231 52968
COSMOS 2588             
1 64095U 25109A   26068.81179522  .00009169  00000+0  32611-3 0  9998
2 64095  72.9704  73.5401 0005019 308.6780  51.3966 15.29122656 44425
